NORAD_CAT_ID,OBJECT_NAME,OBJECT_TYPE,EPOCH,MEAN_MOTION,ECCENTRICITY,INCLINATION,RA_OF_ASC_NODE,ARG_OF_PERICENTER,MEAN_ANOMALY,BSTAR,MEAN_MOTION_DOT,MEAN_MOTION_DDOT,TLE_LINE0,TLE_LINE1,TLE_LINE2,SEMIMAJOR_AXIS,PERIOD,APOGEE,PERIGEE,DECAYED
51812.0,STARLINK-3610,PAYLOAD,2024-04-23 10:46:50,15.08842834,0.0001801,53.2171,165.2843,93.7685,266.3513,0.00024928,3.682e-05,0.0,0 STARLINK-3610,1 51812U 22017AW  24114.44919653  .00003682  00000-0  24928-3 0  9999,2 51812  53.2171 165.2843 0001801  93.7685 266.3513 15.08842834120759,6917.872,95.437,540.983,538.491,0.0
51812.0,STARLINK-3610,PAYLOAD,2024-04-24 12:13:01,15.08844733,0.0001896,53.2178,160.5305,68.8065,291.3129,4.6844e-05,4.58e-06,0.0,0 STARLINK-3610,1 51812U 22017AW  24115.50903944  .00000458  00000-0  46844-4 0  9993,2 51812  53.2178 160.5305 0001896  68.8065 291.3129 15.08844733120915,6917.866,95.437,541.043,538.419,0.0
51812.0,STARLINK-3610,PAYLOAD,2024-04-25 08:53:01,15.08848776,0.0001833,53.2174,156.6625,70.9562,289.1628,6.1594e-05,6.92e-06,0.0,0 STARLINK-3610,1 51812U 22017AW  24116.37015341  .00000692  00000-0  61594-4 0  9993,2 51812  53.2174 156.6625 0001833  70.9562 289.1628 15.08848776120920,6917.854,95.437,540.987,538.451,0.0
51812.0,STARLINK-3610,PAYLOAD,2024-04-26 08:43:48,15.08846169,0.0001522,53.2164,152.2012,86.1516,273.965,5.1003e-05,5.24e-06,0.0,0 STARLINK-3610,1 51812U 22017AW  24117.36375101  .00000524  00000-0  51003-4 0  9994,2 51812  53.2164 152.2012 0001522  86.1516 273.9650 15.08846169121194,6917.862,95.437,540.779,538.674,0.0
51812.0,STARLINK-3610,PAYLOAD,2024-04-27 11:45:20,15.08852889,0.0001696,53.2174,147.1447,95.4471,264.6715,0.00011011,1.465e-05,0.0,0 STARLINK-3610,1 51812U 22017AW  24118.48982004  .00001465  00000-0  11011-3 0  9993,2 51812  53.2174 147.1447 0001696  95.4471 264.6715 15.08852889121369,6917.841,95.437,540.879,538.533,0.0
51812.0,STARLINK-3610,PAYLOAD,2024-04-28 11:36:09,15.08827268,0.0001516,53.2167,142.6846,97.6832,262.4332,-7.1838e-05,-1.431e-05,0.0,0 STARLINK-3610,1 51812U 22017AW  24119.48344320 -.00001431  00000-0 -71838-4 0  9996,2 51812  53.2167 142.6846 0001516  97.6832 262.4332 15.08827268121511,6917.919,95.438,540.833,538.736,0.0
51812.0,STARLINK-3610,PAYLOAD,2024-04-28 17:57:41,15.08830078,0.0001509,53.2168,141.4955,98.1115,262.0048,-4.342e-05,-9.79e-06,0.0,0 STARLINK-3610,1 51812U 22017AW  24119.74840215 -.00000979  00000-0 -43420-4 0  9991,2 51812  53.2168 141.4955 0001509  98.1115 262.0048 15.08830078121436,6917.911,95.438,540.82,538.732,0.0
51812.0,STARLINK-3610,PAYLOAD,2024-04-29 05:05:23,15.08833938,0.0001433,53.2166,139.4141,98.8915,261.224,-3.9563e-06,-3.51e-06,0.0,0 STARLINK-3610,1 51812U 22017AW  24120.21208079 -.00000351  00000-0 -39563-5 0  9999,2 51812  53.2166 139.4141 0001433  98.8915 261.2240 15.08833938121623,6917.899,95.438,540.755,538.773,0.0
51812.0,STARLINK-3610,PAYLOAD,2024-04-29 08:16:09,15.0883665,0.0001438,53.2164,138.8196,99.7882,260.3273,1.998e-05,3e-07,0.0,0 STARLINK-3610,1 51812U 22017AW  24120.34455915  .00000030  00000-0  19980-4 0  9998,2 51812  53.2164 138.8196 0001438  99.7882 260.3273 15.08836650121521,6917.891,95.438,540.75,538.761,0.0
51812.0,STARLINK-3610,PAYLOAD,2024-04-29 17:48:28,15.08842584,0.0001384,53.2166,137.0352,97.62,262.4949,4.0156e-06,-2.24e-06,0.0,0 STARLINK-3610,1 51812U 22017AW  24120.74199615 -.00000224  00000-0  40156-5 0  9990,2 51812  53.2166 137.0352 0001384  97.6200 262.4949 15.08842584121705,6917.872,95.437,540.695,538.78,0.0
51812.0,STARLINK-3610,PAYLOAD,2024-04-30 08:06:56,15.08838106,0.0001345,53.2162,134.3589,102.6445,257.4697,0.00024016,3.536e-05,0.0,0 STARLINK-3610,1 51812U 22017AW  24121.33815835  .00003536  00000-0  24016-3 0  9998,2 51812  53.2162 134.3589 0001345 102.6445 257.4697 15.08838106121673,6917.886,95.438,540.682,538.821,0.0
51812.0,STARLINK-3610,PAYLOAD,2024-04-30 17:39:15,15.08839136,0.0001306,53.2159,132.5749,102.5638,257.55,0.0002113,3.076e-05,0.0,0 STARLINK-3610,1 51812U 22017AW  24121.73560011  .00003076  00000-0  21130-3 0  9998,2 51812  53.2159 132.5749 0001306 102.5638 257.5500 15.08839136121732,6917.883,95.438,540.652,538.845,0.0
51812.0,STARLINK-3610,PAYLOAD,2024-05-01 04:46:58,15.08836351,0.0001396,53.2167,130.4937,103.5696,256.5452,0.00012198,1.654e-05,0.0,0 STARLINK-3610,1 51812U 22017AW  24122.19928586  .00001654  00000-0  12198-3 0  9998,2 51812  53.2167 130.4937 0001396 103.5696 256.5452 15.08836351121923,6917.892,95.438,540.722,538.791,0.0
51812.0,STARLINK-3610,PAYLOAD,2024-05-01 17:30:02,15.0884369,0.0001368,53.2166,128.1141,98.1305,261.9842,0.00011246,1.503e-05,0.0,0 STARLINK-3610,1 51812U 22017AW  24122.72920035  .00001503  00000-0  11246-3 0  9994,2 51812  53.2166 128.1141 0001368  98.1305 261.9842 15.08843690121880,6917.869,95.437,540.68,538.788,0.0
51812.0,STARLINK-3610,PAYLOAD,2024-05-02 04:37:44,15.08849462,0.000141,53.2171,126.0328,97.5585,262.5568,8.8882e-05,1.127e-05,0.0,0 STARLINK-3610,1 51812U 22017AW  24123.19287538  .00001127  00000-0  88882-4 0  9993,2 51812  53.2171 126.0328 0001410  97.5585 262.5568 15.08849462122078,6917.851,95.437,540.692,538.741,0.0
51812.0,STARLINK-3610,PAYLOAD,2024-05-02 09:23:53,15.08850365,0.000141,53.2168,125.1407,96.8703,263.2449,0.00010512,1.386e-05,0.0,0 STARLINK-3610,1 51812U 22017AW  24123.39159331  .00001386  00000-0  10512-3 0  9995,2 51812  53.2168 125.1407 0001410  96.8703 263.2449 15.08850365121985,6917.849,95.437,540.689,538.738,0.0
51812.0,STARLINK-3610,PAYLOAD,2024-05-02 17:20:49,15.08843488,0.0001442,53.2164,123.6528,94.468,265.6477,4.7917e-05,4.75e-06,0.0,0 STARLINK-3610,1 51812U 22017AW  24123.72279761  .00000475  00000-0  47917-4 0  9990,2 51812  53.2164 123.6528 0001442  94.4680 265.6477 15.08843488122156,6917.87,95.437,540.732,538.737,0.0
51812.0,STARLINK-3610,PAYLOAD,2024-05-03 09:14:40,15.08844822,0.000139,53.216,120.6781,96.4357,263.6794,0.0001012,1.323e-05,0.0,0 STARLINK-3610,1 51812U 22017AW  24124.38519439  .00001323  00000-0  10120-3 0  9990,2 51812  53.2160 120.6781 0001390  96.4357 263.6794 15.08844822122136,6917.866,95.437,540.692,538.769,0.0
51812.0,STARLINK-3610,PAYLOAD,2024-05-03 17:11:36,15.08843259,0.0001407,53.2161,119.1916,94.964,265.1513,2.1848e-05,6e-07,0.0,0 STARLINK-3610,1 51812U 22017AW  24124.71639665  .00000060  00000-0  21848-4 0  9998,2 51812  53.2161 119.1916 0001407  94.9640 265.1513 15.08843259122181,6917.87,95.437,540.709,538.762,0.0
51812.0,STARLINK-3610,PAYLOAD,2024-05-04 04:19:19,15.08836746,0.0001448,53.2165,117.1104,94.8837,265.2321,-3.8131e-05,-8.95e-06,0.0,0 STARLINK-3610,1 51812U 22017AW  24125.18008246 -.00000895  00000-0 -38131-4 0  9996,2 51812  53.2165 117.1104 0001448  94.8837 265.2321 15.08836746122376,6917.89,95.438,540.757,538.754,0.0
51812.0,STARLINK-3610,PAYLOAD,2024-05-05 08:56:15,15.08840972,0.0001512,53.218,111.7578,97.4384,262.678,6.0861e-05,6.81e-06,0.0,0 STARLINK-3610,1 51812U 22017AW  24126.37239752  .00000681  00000-0  60861-4 0  9992,2 51812  53.2180 111.7578 0001512  97.4384 262.6780 15.08840972122552,6917.877,95.437,540.788,538.696,0.0
51812.0,STARLINK-3610,PAYLOAD,2024-05-06 08:47:02,15.08842508,0.0001317,53.2163,107.2986,93.9029,266.2114,0.00011286,1.509e-05,0.0,0 STARLINK-3610,1 51812U 22017AW  24127.36599684  .00001509  00000-0  11286-3 0  9991,2 51812  53.2163 107.2986 0001317  93.9029 266.2114 15.08842508122587,6917.873,95.437,540.649,538.827,0.0
51812.0,STARLINK-3610,PAYLOAD,2024-05-06 15:08:34,15.0884198,0.0001307,53.2163,106.1091,93.6935,266.4207,0.00010353,1.36e-05,0.0,0 STARLINK-3610,1 51812U 22017AW  24127.63095788  .00001360  00000-0  10353-3 0  9996,2 51812  53.2163 106.1091 0001307  93.6935 266.4207 15.08841980122740,6917.874,95.437,540.644,538.835,0.0
51812.0,STARLINK-3610,PAYLOAD,2024-05-07 08:37:48,15.08850635,0.0001294,53.2165,102.8379,93.2104,266.9036,0.00011882,1.604e-05,0.0,0 STARLINK-3610,1 51812U 22017AW  24128.35959054  .00001604  00000-0  11882-3 0  9990,2 51812  53.2165 102.8379 0001294  93.2104 266.9036 15.08850635122734,6917.848,95.437,540.608,538.818,0.0
51812.0,STARLINK-3610,PAYLOAD,2024-05-07 14:59:21,15.08836619,0.0001205,53.2165,101.6483,95.7635,264.3494,0.00018722,2.693e-05,0.0,0 STARLINK-3610,1 51812U 22017AW  24128.62455742  .00002693  00000-0  18722-3 0  9994,2 51812  53.2165 101.6483 0001205  95.7635 264.3494 15.08836619122775,6917.891,95.438,540.589,538.922,0.0
51812.0,STARLINK-3610,PAYLOAD,2024-05-08 05:17:51,15.08830098,0.0001387,53.2183,98.9757,101.6,258.5148,-6.329e-05,-1.295e-05,0.0,0 STARLINK-3610,1 51812U 22017AW  24129.22073116 -.00001295  00000-0 -63290-4 0  9992,2 51812  53.2183  98.9757 0001387 101.6000 258.5148 15.08830098122980,6917.911,95.438,540.735,538.816,0.0
51812.0,STARLINK-3610,PAYLOAD,2024-05-08 08:28:37,15.08834559,0.0001496,53.2192,98.38,99.6396,260.4765,-5.0941e-05,-1.098e-05,0.0,0 STARLINK-3610,1 51812U 22017AW  24129.35320890 -.00001098  00000-0 -50941-4 0  9990,2 51812  53.2192  98.3800 0001496  99.6396 260.4765 15.08834559122880,6917.897,95.438,540.797,538.727,0.0
51812.0,STARLINK-3610,PAYLOAD,2024-05-08 14:50:09,15.08834896,0.0001338,53.218,97.189,91.397,268.7175,-2.8788e-05,-7.46e-06,0.0,0 STARLINK-3610,1 51812U 22017AW  24129.61816884 -.00000746  00000-0 -28788-4 0  9995,2 51812  53.2180  97.1890 0001338  91.3970 268.7175 15.08834896122920,6917.896,95.438,540.687,538.835,0.0
51812.0,STARLINK-3610,PAYLOAD,2024-05-09 03:33:14,15.08843439,0.0001291,53.2171,94.8098,96.2423,263.8716,2.3169e-05,8.1e-07,0.0,0 STARLINK-3610,1 51812U 22017AW  24130.14808343  .00000081  00000-0  23169-4 0  9994,2 51812  53.2171  94.8098 0001291  96.2423 263.8716 15.08843439123122,6917.87,95.437,540.628,538.842,0.0
51812.0,STARLINK-3610,PAYLOAD,2024-05-09 06:44:00,15.08846521,0.0001282,53.2171,94.2146,94.5782,265.5356,4.5149e-05,4.31e-06,0.0,0 STARLINK-3610,1 51812U 22017AW  24130.28056112  .00000431  00000-0  45149-4 0  9999,2 51812  53.2171  94.2146 0001282  94.5782 265.5356 15.08846521123022,6917.86,95.437,540.612,538.839,0.0
